{"fetched_at":"2026-03-29T16:36:15Z","count":15609,"tles":[{"name":"STARLINK-11341 [DTC]","line1":"1 61696U 24195K   26087.84061945 -.00001806  00000+0 -10070-4 0  9997","line2":"2 61696  53.1590 291.6887 0000690 101.5859 258.5236 15.69691723 82042","category":"Starlink"}]}