{
  "norad_id": 61696,
  "name": "STARLINK-11341 [DTC]",
  "history": [
    {
      "epoch": "2026-03-28T20:10:29.520480Z",
      "apogee_km": 360.2440362920015,
      "perigee_km": 359.3140691184062,
      "latitude_deg": -2.7649347332249587e-05,
      "longitude_deg": 162.81038915981838,
      "height_km": 360.78654062562634,
      "semi_major_axis_km": 6737.916052705204,
      "eccentricity": 6.901e-05,
      "inclination_deg": 53.159,
      "raan_deg": 291.6887,
      "arg_perigee_deg": 101.5859,
      "mean_anomaly_deg": 258.5236,
      "mean_motion_rev_day": 15.69691723
    }
  ]
}